NORAD_CAT_ID,OBJECT_NAME,OBJECT_TYPE,EPOCH,MEAN_MOTION,ECCENTRICITY,INCLINATION,RA_OF_ASC_NODE,ARG_OF_PERICENTER,MEAN_ANOMALY,BSTAR,MEAN_MOTION_DOT,MEAN_MOTION_DDOT,TLE_LINE0,TLE_LINE1,TLE_LINE2,SEMIMAJOR_AXIS,PERIOD,APOGEE,PERIGEE,DECAYED
51807.0,STARLINK-3606,PAYLOAD,2024-05-20 03:31:14,15.08843485,0.000128,53.2164,55.4356,118.785,241.3271,0.0014306,0.00022555,0.0,0 STARLINK-3606,1 51807U 22017AR  24141.14669514  .00022555  00000-0  14306-2 0  9996,2 51807  53.2164  55.4356 0001280 118.7850 241.3271 15.08843485124691,6917.87,95.437,540.62,538.849,0.0
51807.0,STARLINK-3606,PAYLOAD,2024-05-21 01:46:39,15.08847159,0.0001497,53.2178,51.2725,95.47,264.6463,0.0013907,0.00021919,0.0,0 STARLINK-3606,1 51807U 22017AR  24142.07406439  .00021919  00000-0  13907-2 0  9993,2 51807  53.2178  51.2725 0001497  95.4700 264.6463 15.08847159124834,6917.859,95.437,540.759,538.688,0.0
51807.0,STARLINK-3606,PAYLOAD,2024-05-21 22:26:40,15.08846332,0.0001468,53.2181,47.4064,99.7127,260.4031,0.00095276,0.0001491,0.0,0 STARLINK-3606,1 51807U 22017AR  24142.93518583  .00014910  00000-0  95276-3 0  9995,2 51807  53.2181  47.4064 0001468  99.7127 260.4031 15.08846332124960,6917.861,95.437,540.742,538.71,0.0
51807.0,STARLINK-3606,PAYLOAD,2024-05-22 03:12:49,15.08855582,0.000161,53.2179,46.5142,86.6196,273.498,0.001329,0.00020935,0.0,0 STARLINK-3606,1 51807U 22017AR  24143.13390513  .00020935  00000-0  13290-2 0  9998,2 51807  53.2179  46.5142 0001610  86.6196 273.4980 15.08855582124991,6917.833,95.437,540.812,538.584,0.0
51807.0,STARLINK-3606,PAYLOAD,2024-05-22 20:42:03,15.08854544,0.0001764,53.2185,43.2366,121.9202,238.1962,0.0008989,0.00014053,0.0,0 STARLINK-3606,1 51807U 22017AR  24143.86253682  .00014053  00000-0  89890-3 0  9997,2 51807  53.2185  43.2366 0001764 121.9202 238.1962 15.08854544125100,6917.836,95.437,540.921,538.481,0.0
51807.0,STARLINK-3606,PAYLOAD,2024-05-23 03:03:35,15.08856478,0.000172,53.2192,42.0492,120.0953,240.021,0.0006203,9.602e-05,0.0,0 STARLINK-3606,1 51807U 22017AR  24144.12749473  .00009602  00000-0  62030-3 0  9996,2 51807  53.2192  42.0492 0001720 120.0953 240.0210 15.08856478125140,6917.83,95.437,540.885,538.505,0.0
51807.0,STARLINK-3606,PAYLOAD,2024-05-23 20:32:50,15.08846457,0.0001671,53.218,38.7776,108.3696,251.7478,0.00011064,1.474e-05,0.0,0 STARLINK-3606,1 51807U 22017AR  24144.85613565  .00001474  00000-0  11064-3 0  9998,2 51807  53.2180  38.7776 0001671 108.3696 251.7478 15.08846457125255,6917.861,95.437,540.882,538.57,0.0
51807.0,STARLINK-3606,PAYLOAD,2024-05-24 02:54:22,15.08850511,0.0001883,53.2188,37.5905,118.6299,241.4883,0.0003476,5.25e-05,0.0,0 STARLINK-3606,1 51807U 22017AR  24145.12109413  .00005250  00000-0  34760-3 0  9995,2 51807  53.2188  37.5905 0001883 118.6299 241.4883 15.08850511125298,6917.848,95.437,541.016,538.411,0.0
51807.0,STARLINK-3606,PAYLOAD,2024-05-24 21:58:59,15.08861001,0.0001921,53.2182,34.0234,122.8039,237.3138,0.00060805,9.408e-05,0.0,0 STARLINK-3606,1 51807U 22017AR  24145.91596504  .00009408  00000-0  60805-3 0  9991,2 51807  53.2182  34.0234 0001921 122.8039 237.3138 15.08861001125418,6917.816,95.436,541.01,538.352,0.0
51807.0,STARLINK-3606,PAYLOAD,2024-05-25 09:06:41,15.08855682,0.0001413,53.2177,31.9477,105.6584,254.4564,0.000205,2.977e-05,0.0,0 STARLINK-3606,1 51807U 22017AR  24146.37964570  .00002977  00000-0  20500-3 0  9996,2 51807  53.2177  31.9477 0001413 105.6584 254.4564 15.08855682125485,6917.832,95.437,540.675,538.72,0.0
51807.0,STARLINK-3606,PAYLOAD,2024-05-25 20:14:24,15.08808832,0.0001328,53.2173,29.8644,88.929,271.1855,-0.00077836,-0.00012643,0.0,0 STARLINK-3606,1 51807U 22017AR  24146.84333875 -.00012643  00000-0 -77836-3 0  9993,2 51807  53.2173  29.8644 0001328  88.9290 271.1855 15.08808832125557,6917.976,95.44,540.759,538.922,0.0
51807.0,STARLINK-3606,PAYLOAD,2024-05-25 21:49:47,15.08809303,0.0001366,53.2175,29.5679,93.6012,266.5137,-0.00060385,-9.877e-05,0.0,0 STARLINK-3606,1 51807U 22017AR  24146.90958011 -.00009877  00000-0 -60385-3 0  9991,2 51807  53.2175  29.5679 0001366  93.6012 266.5137 15.08809303125567,6917.974,95.439,540.784,538.894,0.0
51807.0,STARLINK-3606,PAYLOAD,2024-05-26 20:05:12,15.08826435,0.0001852,53.2182,25.415,138.5502,221.5631,0.00093208,0.00014572,0.0,0 STARLINK-3606,1 51807U 22017AR  24147.83695229  .00014572  00000-0  93208-3 0  9999,2 51807  53.2182  25.4150 0001852 138.5502 221.5631 15.08826435125708,6917.922,95.438,541.068,538.506,0.0
51807.0,STARLINK-3606,PAYLOAD,2024-05-26 21:40:35,15.08840816,0.0001618,53.2167,25.1068,124.317,235.7975,0.0010794,0.00016933,0.0,0 STARLINK-3606,1 51807U 22017AR  24147.90319230  .00016933  00000-0  10794-2 0  9993,2 51807  53.2167  25.1068 0001618 124.3170 235.7975 15.08840816125718,6917.878,95.438,540.862,538.624,0.0
51807.0,STARLINK-3606,PAYLOAD,2024-05-27 08:48:13,15.0896001,0.0006064,53.216,23.0214,256.7641,103.2675,0.0041701,0.00066951,0.0,0 STARLINK-3606,1 51807U 22017AR  24148.36682209  .00066951  00000-0  41701-2 0  9990,2 51807  53.2160  23.0214 0006064 256.7641 103.2675 15.08960010125786,6917.514,95.43,543.573,535.184,0.0
51807.0,STARLINK-3606,PAYLOAD,2024-05-27 15:09:50,15.08854999,0.000154,53.218,21.8404,86.8141,273.3027,0.00068316,0.00010606,0.0,0 STARLINK-3606,1 51807U 22017AR  24148.63182960  .00010606  00000-0  68316-3 0  9997,2 51807  53.2180  21.8404 0001540  86.8141 273.3027 15.08854999125829,6917.835,95.437,540.765,538.634,0.0
51807.0,STARLINK-3606,PAYLOAD,2024-05-27 22:00:00,15.08877617,0.0001258,53.2158,20.5584,83.7492,24.4557,-0.0043179,-0.00068424,0.0,0 STARLINK-3606,1 51807U 22017AR  24148.91667824 -.00068424  00000-0 -43179-2 0  9997,2 51807  53.2158  20.5584 0001258  83.7492  24.4557 15.08877617125869,6917.765,95.435,540.501,538.76,0.0
51807.0,STARLINK-3606,PAYLOAD,2024-05-28 00:42:08,15.08857635,0.0001273,53.2167,20.0511,94.1303,265.9834,0.00061417,9.505e-05,0.0,0 STARLINK-3606,1 51807U 22017AR  24149.02926645  .00009505  00000-0  61417-3 0  9998,2 51807  53.2167  20.0511 0001273  94.1303 265.9834 15.08857635125888,6917.826,95.436,540.572,538.811,0.0
51807.0,STARLINK-3606,PAYLOAD,2024-05-28 08:39:03,15.0886182,0.0001302,53.2167,18.5644,88.7502,271.364,0.0005971,9.233e-05,0.0,0 STARLINK-3606,1 51807U 22017AR  24149.36046245  .00009233  00000-0  59710-3 0  9995,2 51807  53.2167  18.5644 0001302  88.7502 271.3640 15.08861820125933,6917.814,95.436,540.579,538.778,0.0
51807.0,STARLINK-3606,PAYLOAD,2024-05-28 19:46:46,15.08844061,0.0001399,53.2171,16.4761,77.482,282.6329,6.7793e-05,7.91e-06,0.0,0 STARLINK-3606,1 51807U 22017AR  24149.82414623  .00000791  00000-0  67793-4 0  9996,2 51807  53.2171  16.4761 0001399  77.4820 282.6329 15.08844061126005,6917.868,95.437,540.701,538.765,0.0
51807.0,STARLINK-3606,PAYLOAD,2024-05-28 21:22:09,15.08846136,0.0001296,53.2166,16.1847,91.6926,268.4215,6.256e-05,7.08e-06,0.0,0 STARLINK-3606,1 51807U 22017AR  24149.89038606  .00000708  00000-0  62560-4 0  9991,2 51807  53.2166  16.1847 0001296  91.6926 268.4215 15.08846136126014,6917.862,95.437,540.623,538.83,0.0
51807.0,STARLINK-3606,PAYLOAD,2024-05-29 14:51:23,15.08844553,0.0001215,53.2158,12.9118,92.9218,267.1914,5.3398e-05,5.62e-06,0.0,0 STARLINK-3606,1 51807U 22017AR  24150.61902550  .00000562  00000-0  53398-4 0  9998,2 51807  53.2158  12.9118 0001215  92.9218 267.1914 15.08844553126124,6917.866,95.437,540.572,538.891,0.0
51807.0,STARLINK-3606,PAYLOAD,2024-05-29 21:12:56,15.08851012,0.0001249,53.2169,11.7235,88.3713,271.7422,9.906e-05,1.289e-05,0.0,0 STARLINK-3606,1 51807U 22017AR  24150.88398308  .00001289  00000-0  99060-4 0  9990,2 51807  53.2169  11.7235 0001249  88.3713 271.7422 15.08851012126166,6917.847,95.437,540.576,538.848,0.0
51807.0,STARLINK-3606,PAYLOAD,2024-05-30 21:03:43,15.08847216,0.000122,53.2164,7.2656,91.3384,268.7748,0.00017453,2.491e-05,0.0,0 STARLINK-3606,1 51807U 22017AR  24151.87758335  .00002491  00000-0  17453-3 0  9991,2 51807  53.2164   7.2656 0001220  91.3384 268.7748 15.08847216126310,6917.858,95.437,540.567,538.879,0.0
51807.0,STARLINK-3606,PAYLOAD,2024-05-31 14:32:58,15.08837025,0.0001347,53.217,3.9948,83.2546,276.86,1.3952e-05,-6.6e-07,0.0,0 STARLINK-3606,1 51807U 22017AR  24152.60622939 -.00000066  00000-0  13952-4 0  9991,2 51807  53.2170   3.9948 0001347  83.2546 276.8600 15.08837025126420,6917.889,95.438,540.686,538.823,0.0
51807.0,STARLINK-3606,PAYLOAD,2024-05-31 20:54:30,15.08844753,0.0001232,53.217,2.8052,90.244,269.8693,8.5148e-05,1.068e-05,0.0,0 STARLINK-3606,1 51807U 22017AR  24152.87118415  .00001068  00000-0  85148-4 0  9997,2 51807  53.2170   2.8052 0001232  90.2440 269.8693 15.08844753126462,6917.866,95.437,540.583,538.879,0.0
51807.0,STARLINK-3606,PAYLOAD,2024-06-01 14:23:45,15.08833874,0.0001792,53.2181,359.5339,97.1332,262.9864,6.5065e-05,7.47e-06,0.0,0 STARLINK-3606,1 51807U 22017AR  24153.59983098  .00000747  00000-0  65065-4 0  9993,2 51807  53.2181 359.5339 0001792  97.1332 262.9864 15.08833874126579,6917.899,95.438,541.004,538.524,0.0
51807.0,STARLINK-3606,PAYLOAD,2024-06-01 20:45:18,15.08836135,0.0001453,53.2194,358.347,97.241,262.8747,4.7453e-05,4.67e-06,0.0,0 STARLINK-3606,1 51807U 22017AR  24153.86479264  .00000467  00000-0  47453-4 0  9998,2 51807  53.2194 358.3470 0001453  97.2410 262.8747 15.08836135126615,6917.892,95.438,540.762,538.752,0.0
51807.0,STARLINK-3606,PAYLOAD,2024-06-02 14:14:32,15.08838375,0.0001524,53.2183,355.0741,99.3488,260.7677,6.5354e-05,7.52e-06,0.0,0 STARLINK-3606,1 51807U 22017AR  24154.59343456  .00000752  00000-0  65354-4 0  9999,2 51807  53.2183 355.0741 0001524  99.3488 260.7677 15.08838375126724,6917.885,95.438,540.805,538.696,0.0
51807.0,STARLINK-3606,PAYLOAD,2024-06-02 20:36:04,15.08843917,0.0001539,53.2185,353.8856,102.0275,258.0889,0.00011246,1.502e-05,0.0,0 STARLINK-3606,1 51807U 22017AR  24154.85839018  .00001502  00000-0  11246-3 0  9996,2 51807  53.2185 353.8856 0001539 102.0275 258.0889 15.08843917126768,6917.868,95.437,540.798,538.669,0.0
